LEMUR-2-PETERG          
1 42841U 17042S   26068.48235713  .00023240  00000+0  81076-3 0  9993
2 42841  97.3980 253.6596 0003700 341.6938  18.4169 15.29611459473171
STARLINK-2615           
1 48678U 21044AS  26068.33317153 -.00003211  00000+0 -96377-4 0  9996
2 48678  53.1594 105.3522 0000972  93.9178 266.1934 15.30189225263913
